IRIDIUM 155             
1 43573U 18061E   24179.93720409  .00000063  00000+0  15281-4 0  9994
2 43573  86.3972 357.2636 0002255  95.3512 264.7941 14.34218004310262
IRIDIUM 154             
1 43574U 18061F   24179.91817586  .00000042  00000+0  79663-5 0  9998
2 43574  86.3976 357.3698 0002003  86.2778 273.8647 14.34217802310315
IRIDIUM 163             
1 43575U 18061G   24179.89914783  .00000024  00000+0  14525-5 0  9999
2 43575  86.3975 357.3156 0002126  90.9733 269.1706 14.34217815310287
IRIDIUM 156             
1 43576U 18061H   24179.94354642  .00000043  00000+0  83235-5 0  9993
2 43576  86.3975 357.3034 0002284  89.9882 270.1576 14.34217479310284
IRIDIUM 164             
1 43577U 18061J   24179.92451826  .00000218  00000+0  70946-4 0  9992
2 43577  86.3977 357.3406 0002218  83.7582 276.3866 14.34217610310328
IRIDIUM 159             
1 43578U 18061K   24179.89280423  .00000161  00000+0  50570-4 0  9990
2 43578  86.3974 357.3057 0001947  84.7267 275.4151 14.34218138310285
IRIDIUM 180             
1 43922U 19002A   24179.82253370  .00000044  00000+0  86450-5 0  9990
2 43922  86.3965 294.2143 0002080  94.5689 265.5744 14.34217919285880
IRIDIUM 176             
1 43923U 19002B   24179.58487878  .00001306  00000+0  20313-3 0  9992
2 43923  86.6091 294.3344 0002237  85.9676 274.1797 14.72255953293371
IRIDIUM 168             
1 43924U 19002C   24179.81619133  .00000063  00000+0  15400-4 0  9991
2 43924  86.3969 294.2740 0002279  92.9145 267.2311 14.34218108285866
IRIDIUM 173             
1 43925U 19002D   24179.87327458  .00000030  00000+0  38199-5 0  9999
2 43925  86.3965 294.1683 0002107  91.7054 268.4383 14.34217809285852
IRIDIUM 169             
1 43926U 19002E   24179.90662577  .00000592  00000+0  18711-3 0  9997
2 43926  86.4232 325.7819 0002538 144.6998 215.4369 14.38615207286817
IRIDIUM 172             
1 43927U 19002F   24179.79716373  .00000053  00000+0  12011-4 0  9999
2 43927  86.3966 294.2056 0002180  91.3784 268.7661 14.34217970285858
IRIDIUM 175             
1 43928U 19002G   24179.85107700  .00003659  00000+0  57615-3 0  9998
2 43928  86.1505 266.7589 0002024 102.8510 257.2932 14.72245877293406
IRIDIUM 171             
1 43929U 19002H   24179.84790442  .00000116  00000+0  34308-4 0  9999
2 43929  86.3976 294.4118 0002342  90.1472 269.9993 14.34218367285855
IRIDIUM 170             
1 43930U 19002J   24179.86292596  .00001526  00000+0  23804-3 0  9994
2 43930  86.6095 294.2232 0002209  92.8053 267.3417 14.72264491293429
IRIDIUM 167             
1 43931U 19002K   24179.84155529  .00000447  00000+0  15251-3 0  9995
2 43931  86.3965 294.2035 0002160  95.6679 264.4763 14.34217100285858
IRIDIUM 181             
1 56726U 23068S   24179.92045940  .00000600  00000+0  17132-3 0  9993
2 56726  86.8641 348.4254 0002443  93.9074 266.2407 14.43572119 58687
IRIDIUM 177             
1 56727U 23068T   24179.90627270  .00000913  00000+0  11671-3 0  9993
2 56727  86.1977 310.2700 0002681  86.4647 273.6881 14.80231588 59966
IRIDIUM 174             
1 56728U 23068U   24179.63043163  .00001236  00000+0  15912-3 0  9998
2 56728  86.1975 310.5048 0002295  94.5005 265.6478 14.80233915 59927
IRIDIUM 178             
1 56729U 23068V   24179.69261237  .00001868  00000+0  24245-3 0  9999
2 56729  86.5784 328.4388 0002049  95.2269 264.9187 14.80234401 59933
IRIDIUM 179             
1 56730U 23068W   24179.88999655  .00000957  00000+0  12241-3 0  9995
2 56730  86.6795 332.6238 0002176  98.7150 261.4318 14.80250129 59963
